[{"OBJECT_NAME":"ONEWEB-0667","OBJECT_ID":"2023-029AH","EPOCH":"2025-09-30T04:21:24.212736","MEAN_MOTION":13.20772493,"ECCENTRICITY":0.00016728,"INCLINATION":87.9252,"RA_OF_ASC_NODE":326.2638,"ARG_OF_PERICENTER":95.7879,"MEAN_ANOMALY":264.3445,"EPHEMERIS_TYPE":0,"CLASSIFICATION_TYPE":"U","NORAD_CAT_ID":55827,"ELEMENT_SET_NO":999,"REV_AT_EPOCH":12682,"BSTAR":0.00015822521,"MEAN_MOTION_DOT":7.7e-7,"MEAN_MOTION_DDOT":0},{"OBJECT_NAME":"ONEWEB-0669","OBJECT_ID":"2023-029AJ","EPOCH":"2025-09-29T15:30:58.362912","MEAN_MOTION":13.20771518,"ECCENTRICITY":0.00021826,"INCLINATION":87.9248,"RA_OF_ASC_NODE":326.4099,"ARG_OF_PERICENTER":78.1543,"MEAN_ANOMALY":281.9835,"EPHEMERIS_TYPE":0,"CLASSIFICATION_TYPE":"U","NORAD_CAT_ID":55828,"ELEMENT_SET_NO":999,"REV_AT_EPOCH":12675,"BSTAR":0.00030995151,"MEAN_MOTION_DOT":1.39e-6,"MEAN_MOTION_DDOT":0},{"OBJECT_NAME":"ONEWEB-0670","OBJECT_ID":"2023-029AK","EPOCH":"2025-09-29T21:20:48.936192","MEAN_MOTION":13.14504676,"ECCENTRICITY":0.0001489,"INCLINATION":87.9074,"RA_OF_ASC_NODE":341.5926,"ARG_OF_PERICENTER":87.7449,"MEAN_ANOMALY":272.3851,"EPHEMERIS_TYPE":0,"CLASSIFICATION_TYPE":"U","NORAD_CAT_ID":55829,"ELEMENT_SET_NO":999,"REV_AT_EPOCH":12523,"BSTAR":0.00027209,"MEAN_MOTION_DOT":1.14e-6,"MEAN_MOTION_DDOT":0},{"OBJECT_NAME":"ONEWEB-0671","OBJECT_ID":"2023-029AL","EPOCH":"2025-09-29T22:27:56.958624","MEAN_MOTION":13.19725268,"ECCENTRICITY":0.0001611,"INCLINATION":87.9276,"RA_OF_ASC_NODE":356.7455,"ARG_OF_PERICENTER":97.8509,"MEAN_ANOMALY":262.2807,"EPHEMERIS_TYPE":0,"CLASSIFICATION_TYPE":"U","NORAD_CAT_ID":55830,"ELEMENT_SET_NO":999,"REV_AT_EPOCH":12457,"BSTAR":0.00015056,"MEAN_MOTION_DOT":7.3e-7,"MEAN_MOTION_DDOT":0},{"OBJECT_NAME":"ONEWEB-0672","OBJECT_ID":"2023-029AM","EPOCH":"2025-09-30T04:07:46.385760","MEAN_MOTION":13.20771247,"ECCENTRICITY":0.00021607,"INCLINATION":87.9244,"RA_OF_ASC_NODE":326.2877,"ARG_OF_PERICENTER":93.877,"MEAN_ANOMALY":266.261,"EPHEMERIS_TYPE":0,"CLASSIFICATION_TYPE":"U","NORAD_CAT_ID":55831,"ELEMENT_SET_NO":999,"REV_AT_EPOCH":12682,"BSTAR":8.9938932e-5,"MEAN_MOTION_DOT":5.0e-7,"MEAN_MOTION_DDOT":0},{"OBJECT_NAME":"ONEWEB-0673","OBJECT_ID":"2023-029AN","EPOCH":"2025-09-29T18:15:29.037600","MEAN_MOTION":13.19726383,"ECCENTRICITY":0.00017825,"INCLINATION":87.9294,"RA_OF_ASC_NODE":356.7487,"ARG_OF_PERICENTER":107.5593,"MEAN_ANOMALY":252.5735,"EPHEMERIS_TYPE":0,"CLASSIFICATION_TYPE":"U","NORAD_CAT_ID":55832,"ELEMENT_SET_NO":999,"REV_AT_EPOCH":12455,"BSTAR":0.00011134167,"MEAN_MOTION_DOT":5.8e-7,"MEAN_MOTION_DDOT":0},{"OBJECT_NAME":"ONEWEB-0674","OBJECT_ID":"2023-029AP","EPOCH":"2025-09-29T22:24:46.469088","MEAN_MOTION":13.1450164,"ECCENTRICITY":0.0001479,"INCLINATION":87.9067,"RA_OF_ASC_NODE":341.5666,"ARG_OF_PERICENTER":87.0939,"MEAN_ANOMALY":273.036,"EPHEMERIS_TYPE":0,"CLASSIFICATION_TYPE":"U","NORAD_CAT_ID":55833,"ELEMENT_SET_NO":999,"REV_AT_EPOCH":12522,"BSTAR":3.2457e-5,"MEAN_MOTION_DOT":2.5e-7,"MEAN_MOTION_DDOT":0},{"OBJECT_NAME":"ONEWEB-0675","OBJECT_ID":"2023-029AQ","EPOCH":"2025-09-29T18:38:13.934688","MEAN_MOTION":13.19727294,"ECCENTRICITY":0.00021213,"INCLINATION":87.9277,"RA_OF_ASC_NODE":356.7873,"ARG_OF_PERICENTER":105.3644,"MEAN_ANOMALY":254.7723,"EPHEMERIS_TYPE":0,"CLASSIFICATION_TYPE":"U","NORAD_CAT_ID":55834,"ELEMENT_SET_NO":999,"REV_AT_EPOCH":12457,"BSTAR":0.00026587159,"MEAN_MOTION_DOT":1.19e-6,"MEAN_MOTION_DDOT":0},{"OBJECT_NAME":"ONEWEB-0720","OBJECT_ID":"2023-029AR","EPOCH":"2025-09-29T16:37:40.308960","MEAN_MOTION":13.19728334,"ECCENTRICITY":0.00015214,"INCLINATION":87.9278,"RA_OF_ASC_NODE":356.801,"ARG_OF_PERICENTER":110.0081,"MEAN_ANOMALY":250.1216,"EPHEMERIS_TYPE":0,"CLASSIFICATION_TYPE":"U","NORAD_CAT_ID":55835,"ELEMENT_SET_NO":999,"REV_AT_EPOCH":12448,"BSTAR":0.00010443113,"MEAN_MOTION_DOT":5.5e-7,"MEAN_MOTION_DDOT":0},{"OBJECT_NAME":"ONEWEB-0537","OBJECT_ID":"2023-043A","EPOCH":"2025-09-30T06:50:24.572832","MEAN_MOTION":13.16593613,"ECCENTRICITY":0.00020827,"INCLINATION":87.8979,"RA_OF_ASC_NODE":280.5557,"ARG_OF_PERICENTER":91.7875,"MEAN_ANOMALY":268.3495,"EPHEMERIS_TYPE":0,"CLASSIFICATION_TYPE":"U","NORAD_CAT_ID":56046,"ELEMENT_SET_NO":999,"REV_AT_EPOCH":12476,"BSTAR":4.5593122e-5,"MEAN_MOTION_DOT":3.0e-7,"MEAN_MOTION_DDOT":0},{"OBJECT_NAME":"ONEWEB-0538","OBJECT_ID":"2023-043B","EPOCH":"2025-09-29T12:26:53.709216","MEAN_MOTION":13.16592403,"ECCENTRICITY":0.00019907,"INCLINATION":87.897,"RA_OF_ASC_NODE":280.7194,"ARG_OF_PERICENTER":98.7558,"MEAN_ANOMALY":261.3798,"EPHEMERIS_TYPE":0,"CLASSIFICATION_TYPE":"U","NORAD_CAT_ID":56047,"ELEMENT_SET_NO":999,"REV_AT_EPOCH":12467,"BSTAR":-0.00038330756,"MEAN_MOTION_DOT":-1.34e-6,"MEAN_MOTION_DDOT":0},{"OBJECT_NAME":"ONEWEB-0546","OBJECT_ID":"2023-043C","EPOCH":"2025-09-30T06:23:02.101920","MEAN_MOTION":13.16594987,"ECCENTRICITY":0.0002558,"INCLINATION":87.8982,"RA_OF_ASC_NODE":280.5534,"ARG_OF_PERICENTER":87.6261,"MEAN_ANOMALY":272.5163,"EPHEMERIS_TYPE":0,"CLASSIFICATION_TYPE":"U","NORAD_CAT_ID":56048,"ELEMENT_SET_NO":999,"REV_AT_EPOCH":12476,"BSTAR":-9.6171647e-5,"MEAN_MOTION_DOT":-2.4e-7,"MEAN_MOTION_DDOT":0},{"OBJECT_NAME":"ONEWEB-0547","OBJECT_ID":"2023-043D","EPOCH":"2025-09-30T01:56:32.199936","MEAN_MOTION":13.21826215,"ECCENTRICITY":0.00018165,"INCLINATION":87.9179,"RA_OF_ASC_NODE":295.8778,"ARG_OF_PERICENTER":96.053,"MEAN_ANOMALY":264.0811,"EPHEMERIS_TYPE":0,"CLASSIFICATION_TYPE":"U","NORAD_CAT_ID":56049,"ELEMENT_SET_NO":999,"REV_AT_EPOCH":12386,"BSTAR":1.0568548e-5,"MEAN_MOTION_DOT":1.7e-7,"MEAN_MOTION_DDOT":0},{"OBJECT_NAME":"ONEWEB-0548","OBJECT_ID":"2023-043E","EPOCH":"2025-09-30T01:31:10.759872","MEAN_MOTION":13.16593712,"ECCENTRICITY":0.00016949,"INCLINATION":87.8955,"RA_OF_ASC_NODE":280.6137,"ARG_OF_PERICENTER":75.474,"MEAN_ANOMALY":284.6579,"EPHEMERIS_TYPE":0,"CLASSIFICATION_TYPE":"U","NORAD_CAT_ID":56050,"ELEMENT_SET_NO":999,"REV_AT_EPOCH":12473,"BSTAR":-0.00088039876,"MEAN_MOTION_DOT":-3.24e-6,"MEAN_MOTION_DDOT":0},{"OBJECT_NAME":"ONEWEB-0549","OBJECT_ID":"2023-043F","EPOCH":"2025-09-30T07:11:03.382080","MEAN_MOTION":13.21825476,"ECCENTRICITY":0.00018561,"INCLINATION":87.9181,"RA_OF_ASC_NODE":295.8498,"ARG_OF_PERICENTER":102.2927,"MEAN_ANOMALY":257.8415,"EPHEMERIS_TYPE":0,"CLASSIFICATION_TYPE":"U","NORAD_CAT_ID":56051,"ELEMENT_SET_NO":999,"REV_AT_EPOCH":12389,"BSTAR":0.00017667273,"MEAN_MOTION_DOT":8.6e-7,"MEAN_MOTION_DDOT":0},{"OBJECT_NAME":"ONEWEB-0550","OBJECT_ID":"2023-043G","EPOCH":"2025-09-30T01:25:52.608288","MEAN_MOTION":13.21825461,"ECCENTRICITY":0.00018622,"INCLINATION":87.9183,"RA_OF_ASC_NODE":295.892,"ARG_OF_PERICENTER":88.6652,"MEAN_ANOMALY":271.4695,"EPHEMERIS_TYPE":0,"CLASSIFICATION_TYPE":"U","NORAD_CAT_ID":56052,"ELEMENT_SET_NO":999,"REV_AT_EPOCH":12386,"BSTAR":-9.607822e-5,"MEAN_MOTION_DOT":-2.7e-7,"MEAN_MOTION_DDOT":0},{"OBJECT_NAME":"ONEWEB-0551","OBJECT_ID":"2023-043H","EPOCH":"2025-09-30T00:56:24.335520","MEAN_MOTION":13.15547485,"ECCENTRICITY":0.00017059,"INCLINATION":87.8999,"RA_OF_ASC_NODE":311.1518,"ARG_OF_PERICENTER":99.0112,"MEAN_ANOMALY":261.1212,"EPHEMERIS_TYPE":0,"CLASSIFICATION_TYPE":"U","NORAD_CAT_ID":56053,"ELEMENT_SET_NO":999,"REV_AT_EPOCH":12219,"BSTAR":0.00018741961,"MEAN_MOTION_DOT":8.3e-7,"MEAN_MOTION_DDOT":0}]
