ONEWEB-0667             
1 55827U 23029AH  25273.18153024  .00000077  00000+0  15823-3 0  9991
2 55827  87.9252 326.2638 0001672  95.7879 264.3445 13.20772493126828
ONEWEB-0669             
1 55828U 23029AJ  25272.64650883  .00000139  00000+0  30995-3 0  9993
2 55828  87.9248 326.4099 0002182  78.1543 281.9835 13.20771518126754
ONEWEB-0670             
1 55829U 23029AK  25272.88945528  .00000114  00000+0  27209-3 0  9990
2 55829  87.9074 341.5926 0001489  87.7449 272.3851 13.14504676125235
ONEWEB-0671             
1 55830U 23029AL  25272.93607591  .00000073  00000+0  15056-3 0  9994
2 55830  87.9276 356.7455 0001611  97.8509 262.2807 13.19725268124574
ONEWEB-0672             
1 55831U 23029AM  25273.17206465  .00000050  00000+0  89939-4 0  9994
2 55831  87.9244 326.2877 0002160  93.8770 266.2610 13.20771247126822
ONEWEB-0673             
1 55832U 23029AN  25272.76075275  .00000058  00000+0  11134-3 0  9991
2 55832  87.9294 356.7487 0001782 107.5593 252.5735 13.19726383124551
ONEWEB-0674             
1 55833U 23029AP  25272.93387117  .00000025  00000+0  32457-4 0  9998
2 55833  87.9067 341.5666 0001479  87.0939 273.0360 13.14501640125229
ONEWEB-0675             
1 55834U 23029AQ  25272.77655017  .00000119  00000+0  26587-3 0  9998
2 55834  87.9277 356.7873 0002121 105.3644 254.7723 13.19727294124579
ONEWEB-0720             
1 55835U 23029AR  25272.69282765  .00000055  00000+0  10443-3 0  9999
2 55835  87.9278 356.8010 0001521 110.0081 250.1216 13.19728334124489
ONEWEB-0537             
1 56046U 23043A   25273.28500663  .00000030  00000+0  45593-4 0  9994
2 56046  87.8979 280.5557 0002082  91.7875 268.3495 13.16593613124767
ONEWEB-0538             
1 56047U 23043B   25272.51867719 -.00000134  00000+0 -38331-3 0  9996
2 56047  87.8970 280.7194 0001990  98.7558 261.3798 13.16592403124675
ONEWEB-0546             
1 56048U 23043C   25273.26599655 -.00000024  00000+0 -96172-4 0  9997
2 56048  87.8982 280.5534 0002558  87.6261 272.5163 13.16594987124763
ONEWEB-0547             
1 56049U 23043D   25273.08092824  .00000017  00000+0  10569-4 0  9990
2 56049  87.9179 295.8778 0001816  96.0530 264.0811 13.21826215123865
ONEWEB-0548             
1 56050U 23043E   25273.06331898 -.00000324  00000+0 -88040-3 0  9998
2 56050  87.8955 280.6137 0001694  75.4740 284.6579 13.16593712124730
ONEWEB-0549             
1 56051U 23043F   25273.29934470  .00000086  00000+0  17667-3 0  9999
2 56051  87.9181 295.8498 0001856 102.2927 257.8415 13.21825476123895
ONEWEB-0550             
1 56052U 23043G   25273.05963667 -.00000027  00000+0 -96078-4 0  9995
2 56052  87.9183 295.8920 0001862  88.6652 271.4695 13.21825461123860
ONEWEB-0551             
1 56053U 23043H   25273.03917055  .00000083  00000+0  18742-3 0  9995
2 56053  87.8999 311.1518 0001705  99.0112 261.1212 13.15547485122199
